CCSDS_OMM_VERS = 2.0
CREATION_DATE  = 
ORIGINATOR     = 

OBJECT_NAME    = IDEFIX & ARIANE 42P R/B
OBJECT_ID      = 2002-021B
CENTER_NAME    = EARTH
REF_FRAME      = TEME
TIME_SYSTEM    = UTC
MEAN_ELEMENT_THEORY = SGP/SGP4

EPOCH          = 2026-02-04T01:46:20.186400
MEAN_MOTION    = 14.31000623
ECCENTRICITY   = .0010761
INCLINATION    = 98.5838
RA_OF_ASC_NODE = 334.0893
ARG_OF_PERICENTER = 289.1869
MEAN_ANOMALY   = 70.8149

EPHEMERIS_TYPE = 0
CLASSIFICATION_TYPE = U
NORAD_CAT_ID   = 27422
ELEMENT_SET_NO = 999
REV_AT_EPOCH   = 23921
BSTAR          = .15072E-3
MEAN_MOTION_DOT = .353E-5
MEAN_MOTION_DDOT = 0

CCSDS_OMM_VERS = 2.0
CREATION_DATE  = 
ORIGINATOR     = 

OBJECT_NAME    = AQUA
OBJECT_ID      = 2002-022A
CENTER_NAME    = EARTH
REF_FRAME      = TEME
TIME_SYSTEM    = UTC
MEAN_ELEMENT_THEORY = SGP/SGP4

EPOCH          = 2026-02-04T05:09:45.209376
MEAN_MOTION    = 14.61890091
ECCENTRICITY   = .0001652
INCLINATION    = 98.4116
RA_OF_ASC_NODE = 1.9865
ARG_OF_PERICENTER = 56.7127
MEAN_ANOMALY   = 0.0651

EPHEMERIS_TYPE = 0
CLASSIFICATION_TYPE = U
NORAD_CAT_ID   = 27424
ELEMENT_SET_NO = 999
REV_AT_EPOCH   = 26384
BSTAR          = .25262E-3
MEAN_MOTION_DOT = .1214E-4
MEAN_MOTION_DDOT = 0

CCSDS_OMM_VERS = 2.0
CREATION_DATE  = 
ORIGINATOR     = 

OBJECT_NAME    = CZ-4B R/B
OBJECT_ID      = 2002-024C
CENTER_NAME    = EARTH
REF_FRAME      = TEME
TIME_SYSTEM    = UTC
MEAN_ELEMENT_THEORY = SGP/SGP4

EPOCH          = 2026-02-04T02:44:50.842176
MEAN_MOTION    = 14.14541462
ECCENTRICITY   = .0051081
INCLINATION    = 98.8910
RA_OF_ASC_NODE = 88.6784
ARG_OF_PERICENTER = 117.9678
MEAN_ANOMALY   = 272.3295

EPHEMERIS_TYPE = 0
CLASSIFICATION_TYPE = U
NORAD_CAT_ID   = 27432
ELEMENT_SET_NO = 999
REV_AT_EPOCH   = 22449
BSTAR          = .61204E-4
MEAN_MOTION_DOT = .75E-6
MEAN_MOTION_DDOT = 0

CCSDS_OMM_VERS = 2.0
CREATION_DATE  = 
ORIGINATOR     = 

OBJECT_NAME    = MIDORI II (ADEOS-II)
OBJECT_ID      = 2002-056A
CENTER_NAME    = EARTH
REF_FRAME      = TEME
TIME_SYSTEM    = UTC
MEAN_ELEMENT_THEORY = SGP/SGP4

EPOCH          = 2026-02-04T03:08:47.573088
MEAN_MOTION    = 14.29258095
ECCENTRICITY   = .0002133
INCLINATION    = 98.7712
RA_OF_ASC_NODE = 353.3902
ARG_OF_PERICENTER = 89.9941
MEAN_ANOMALY   = 270.1485

EPHEMERIS_TYPE = 0
CLASSIFICATION_TYPE = U
NORAD_CAT_ID   = 27597
ELEMENT_SET_NO = 999
REV_AT_EPOCH   = 20550
BSTAR          = .16277E-3
MEAN_MOTION_DOT = .369E-5
MEAN_MOTION_DDOT = 0

CCSDS_OMM_VERS = 2.0
CREATION_DATE  = 
ORIGINATOR     = 

OBJECT_NAME    = H-2A R/B
OBJECT_ID      = 2002-056E
CENTER_NAME    = EARTH
REF_FRAME      = TEME
TIME_SYSTEM    = UTC
MEAN_ELEMENT_THEORY = SGP/SGP4

EPOCH          = 2026-02-03T22:16:22.084032
MEAN_MOTION    = 14.33735247
ECCENTRICITY   = .0068989
INCLINATION    = 98.3141
RA_OF_ASC_NODE = 356.5918
ARG_OF_PERICENTER = 262.1990
MEAN_ANOMALY   = 147.9123

EPHEMERIS_TYPE = 0
CLASSIFICATION_TYPE = U
NORAD_CAT_ID   = 27601
ELEMENT_SET_NO = 999
REV_AT_EPOCH   = 20927
BSTAR          = .14754E-3
MEAN_MOTION_DOT = .378E-5
MEAN_MOTION_DDOT = 0

CCSDS_OMM_VERS = 2.0
CREATION_DATE  = 
ORIGINATOR     = 

OBJECT_NAME    = CZ-4B R/B
OBJECT_ID      = 2003-049C
CENTER_NAME    = EARTH
REF_FRAME      = TEME
TIME_SYSTEM    = UTC
MEAN_ELEMENT_THEORY = SGP/SGP4

EPOCH          = 2026-02-03T11:32:10.416768
MEAN_MOTION    = 14.54980133
ECCENTRICITY   = .00477521
INCLINATION    = 98.6839
RA_OF_ASC_NODE = 28.0541
ARG_OF_PERICENTER = 337.4715
MEAN_ANOMALY   = 22.4384

EPHEMERIS_TYPE = 0
CLASSIFICATION_TYPE = U
NORAD_CAT_ID   = 28059
ELEMENT_SET_NO = 999
REV_AT_EPOCH   = 18162
BSTAR          = .14046582E-3
MEAN_MOTION_DOT = .562E-5
MEAN_MOTION_DDOT = 0

CCSDS_OMM_VERS = 2.0
CREATION_DATE  = 
ORIGINATOR     = 

OBJECT_NAME    = CZ-2C R/B
OBJECT_ID      = 2004-012C
CENTER_NAME    = EARTH
REF_FRAME      = TEME
TIME_SYSTEM    = UTC
MEAN_ELEMENT_THEORY = SGP/SGP4

EPOCH          = 2026-02-04T02:46:07.966272
MEAN_MOTION    = 15.60691394
ECCENTRICITY   = .0016399
INCLINATION    = 97.7311
RA_OF_ASC_NODE = 97.3168
ARG_OF_PERICENTER = 76.2318
MEAN_ANOMALY   = 284.0762

EPHEMERIS_TYPE = 0
CLASSIFICATION_TYPE = U
NORAD_CAT_ID   = 28222
ELEMENT_SET_NO = 999
REV_AT_EPOCH   = 19903
BSTAR          = .60183E-3
MEAN_MOTION_DOT = .50337E-3
MEAN_MOTION_DDOT = 0

CCSDS_OMM_VERS = 2.0
CREATION_DATE  = 
ORIGINATOR     = 

OBJECT_NAME    = SL-16 R/B
OBJECT_ID      = 2004-021B
CENTER_NAME    = EARTH
REF_FRAME      = TEME
TIME_SYSTEM    = UTC
MEAN_ELEMENT_THEORY = SGP/SGP4

EPOCH          = 2026-02-04T03:37:56.697024
MEAN_MOTION    = 14.14589207
ECCENTRICITY   = .0002831
INCLINATION    = 71.0008
RA_OF_ASC_NODE = 302.8782
ARG_OF_PERICENTER = 93.5582
MEAN_ANOMALY   = 266.5864

EPHEMERIS_TYPE = 0
CLASSIFICATION_TYPE = U
NORAD_CAT_ID   = 28353
ELEMENT_SET_NO = 999
REV_AT_EPOCH   = 11809
BSTAR          = -.51417E-5
MEAN_MOTION_DOT = -.57E-6
MEAN_MOTION_DDOT = 0

CCSDS_OMM_VERS = 2.0
CREATION_DATE  = 
ORIGINATOR     = 

OBJECT_NAME    = CZ-4B R/B
OBJECT_ID      = 2004-035C
CENTER_NAME    = EARTH
REF_FRAME      = TEME
TIME_SYSTEM    = UTC
MEAN_ELEMENT_THEORY = SGP/SGP4

EPOCH          = 2026-02-04T03:13:24.734784
MEAN_MOTION    = 15.28428699
ECCENTRICITY   = .0034321
INCLINATION    = 97.3538
RA_OF_ASC_NODE = 69.7867
ARG_OF_PERICENTER = 88.1097
MEAN_ANOMALY   = 272.4073

EPHEMERIS_TYPE = 0
CLASSIFICATION_TYPE = U
NORAD_CAT_ID   = 28415
ELEMENT_SET_NO = 999
REV_AT_EPOCH   = 17478
BSTAR          = .31938E-3
MEAN_MOTION_DOT = .8921E-4
MEAN_MOTION_DDOT = 0

CCSDS_OMM_VERS = 2.0
CREATION_DATE  = 
ORIGINATOR     = 

OBJECT_NAME    = CZ-2C R/B
OBJECT_ID      = 2004-046B
CENTER_NAME    = EARTH
REF_FRAME      = TEME
TIME_SYSTEM    = UTC
MEAN_ELEMENT_THEORY = SGP/SGP4

EPOCH          = 2026-02-04T04:17:48.008832
MEAN_MOTION    = 14.26979337
ECCENTRICITY   = .0138166
INCLINATION    = 98.1998
RA_OF_ASC_NODE = 312.2437
ARG_OF_PERICENTER = 253.8939
MEAN_ANOMALY   = 104.6995

EPHEMERIS_TYPE = 0
CLASSIFICATION_TYPE = U
NORAD_CAT_ID   = 28480
ELEMENT_SET_NO = 999
REV_AT_EPOCH   = 10372
BSTAR          = .7697E-4
MEAN_MOTION_DOT = .165E-5
MEAN_MOTION_DDOT = 0

CCSDS_OMM_VERS = 2.0
CREATION_DATE  = 
ORIGINATOR     = 

OBJECT_NAME    = ARIANE 5 R/B
OBJECT_ID      = 2004-049H
CENTER_NAME    = EARTH
REF_FRAME      = TEME
TIME_SYSTEM    = UTC
MEAN_ELEMENT_THEORY = SGP/SGP4

EPOCH          = 2026-02-03T11:25:30.950688
MEAN_MOTION    = 14.85190592
ECCENTRICITY   = .00854862
INCLINATION    = 98.2572
RA_OF_ASC_NODE = 201.6664
ARG_OF_PERICENTER = 101.8350
MEAN_ANOMALY   = 259.2467

EPHEMERIS_TYPE = 0
CLASSIFICATION_TYPE = U
NORAD_CAT_ID   = 28499
ELEMENT_SET_NO = 999
REV_AT_EPOCH   = 14071
BSTAR          = .13644939E-3
MEAN_MOTION_DOT = .1184E-4
MEAN_MOTION_DDOT = 0

CCSDS_OMM_VERS = 2.0
CREATION_DATE  = 
ORIGINATOR     = 

OBJECT_NAME    = CZ-2D R/B
OBJECT_ID      = 2005-024B
CENTER_NAME    = EARTH
REF_FRAME      = TEME
TIME_SYSTEM    = UTC
MEAN_ELEMENT_THEORY = SGP/SGP4

EPOCH          = 2026-02-04T00:04:29.142912
MEAN_MOTION    = 15.57187854
ECCENTRICITY   = .0007033
INCLINATION    = 97.3614
RA_OF_ASC_NODE = 48.9914
ARG_OF_PERICENTER = 128.0241
MEAN_ANOMALY   = 232.1650

EPHEMERIS_TYPE = 0
CLASSIFICATION_TYPE = U
NORAD_CAT_ID   = 28738
ELEMENT_SET_NO = 999
REV_AT_EPOCH   = 13453
BSTAR          = .58111E-3
MEAN_MOTION_DOT = .42324E-3
MEAN_MOTION_DDOT = 0

