IDEFIX & ARIANE 42P R/B 
1 27422U 02021B   26035.07384475  .00000353  00000+0  15072-3 0  9994
2 27422  98.5838 334.0893 0010761 289.1869  70.8149 14.31000623239214
AQUA                    
1 27424U 02022A   26035.21510659  .00001214  00000+0  25262-3 0  9997
2 27424  98.4116   1.9865 0001652  56.7127   0.0651 14.61890091263845
CZ-4B R/B               
1 27432U 02024C   26035.11447734  .00000075  00000+0  61204-4 0  9991
2 27432  98.8910  88.6784 0051081 117.9678 272.3295 14.14541462224493
MIDORI II (ADEOS-II)    
1 27597U 02056A   26035.13110617  .00000369  00000+0  16277-3 0  9992
2 27597  98.7712 353.3902 0002133  89.9941 270.1485 14.29258095205504
H-2A R/B                
1 27601U 02056E   26034.92803338  .00000378  00000+0  14754-3 0  9991
2 27601  98.3141 356.5918 0068989 262.1990 147.9123 14.33735247209276
CZ-4B R/B               
1 28059U 03049C   26034.48067612  .00000562  00000+0  14047-3 0  9990
2 28059  98.6839  28.0541 0047752 337.4715  22.4384 14.54980133181623
CZ-2C R/B               
1 28222U 04012C   26035.11536998  .00050337  00000+0  60183-3 0  9999
2 28222  97.7311  97.3168 0016399  76.2318 284.0762 15.60691394199030
SL-16 R/B               
1 28353U 04021B   26035.15135066 -.00000057  00000+0 -51417-5 0  9997
2 28353  71.0008 302.8782 0002831  93.5582 266.5864 14.14589207118092
CZ-4B R/B               
1 28415U 04035C   26035.13431406  .00008921  00000+0  31938-3 0  9996
2 28415  97.3538  69.7867 0034321  88.1097 272.4073 15.28428699174782
CZ-2C R/B               
1 28480U 04046B   26035.17902788  .00000165  00000+0  76970-4 0  9998
2 28480  98.1998 312.2437 0138166 253.8939 104.6995 14.26979337103722
ARIANE 5 R/B            
1 28499U 04049H   26034.47605267  .00001184  00000+0  13645-3 0  9996
2 28499  98.2572 201.6664 0085486 101.8350 259.2467 14.85190592140713
CZ-2D R/B               
1 28738U 05024B   26035.00311508  .00042324  00000+0  58111-3 0  9996
2 28738  97.3614  48.9914 0007033 128.0241 232.1650 15.57187854134532
